[{"OBJECT_NAME":"KUIPER-00108","OBJECT_ID":"2025-171Q","EPOCH":"2026-03-09T10:31:12.671904","MEAN_MOTION":14.79936216,"ECCENTRICITY":8.786e-5,"INCLINATION":51.9022,"RA_OF_ASC_NODE":161.7205,"ARG_OF_PERICENTER":176.7524,"MEAN_ANOMALY":183.3445,"EPHEMERIS_TYPE":0,"CLASSIFICATION_TYPE":"U","NORAD_CAT_ID":65146,"ELEMENT_SET_NO":999,"REV_AT_EPOCH":3282,"BSTAR":0.00024776602,"MEAN_MOTION_DOT":1.668e-5,"MEAN_MOTION_DDOT":0},{"OBJECT_NAME":"UNKNOWN","OBJECT_ID":"","EPOCH":"2026-03-09T04:07:28.221024","MEAN_MOTION":14.39475185,"ECCENTRICITY":0.0205861,"INCLINATION":97.739,"RA_OF_ASC_NODE":141.0566,"ARG_OF_PERICENTER":24.2005,"MEAN_ANOMALY":336.8689,"EPHEMERIS_TYPE":0,"CLASSIFICATION_TYPE":"U","NORAD_CAT_ID":82073,"ELEMENT_SET_NO":999,"REV_AT_EPOCH":58755,"BSTAR":0.00062271,"MEAN_MOTION_DOT":2.445e-5,"MEAN_MOTION_DDOT":0}]
